0 THORAD DELTA 1 DEB
1 08163U 74089AD  13281.54571457  .00000596  00000-0  41575-2 0  2075
2 08163 102.3643 140.7815 0361867 176.6033 183.7605 12.33987067738141
0 THORAD DELTA 1 DEB
1 08163U 74089AD  13283.08611552  .00000790  00000-0  54159-2 0  2086
2 08163 102.3645 142.3315 0361678 173.6543 186.9277 12.33989753738334
0 THORAD DELTA 1 DEB
1 08163U 74089AD  13288.11263730  .00001107  00000-0  74709-2 0  2116
2 08163 102.3686 147.3858 0361653 164.0312 197.2504 12.34010860738958
0 THORAD DELTA 1 DEB
1 08163U 74089AD  13289.57193116  .00001442  00000-0  96390-2 0  2120
2 08163 102.3691 148.8544 0361602 161.2249 200.2548 12.34017154739131
0 THORAD DELTA 1 DEB
1 08163U 74089AD  13289.89621859  .00001574  00000-0  10494-1 0  2132
2 08163 102.3711 149.1792 0361793 160.6107 200.9127 12.34010778739179
0 THORAD DELTA 1 DEB
1 08163U 74089AD  13290.86907646  .00001581  00000-0  10537-1 0  2149
2 08163 102.3717 150.1578 0361811 158.6938 202.9625 12.34023778739291
0 THORAD DELTA 1 DEB
1 08163U 74089AD  13292.16620639  .00001780  00000-0  11828-1 0  2154
2 08163 102.3710 151.4629 0361849 156.4674 205.3411 12.34027969739453
0 THORAD DELTA 1 DEB
1 08163U 74089AD  13293.13905346  .00001221  00000-0  81966-2 0  2165
2 08163 102.3755 152.4396 0362260 154.4608 207.4845 12.34037762739576
0 THORAD DELTA 1 DEB
1 08163U 74089AD  13294.51724536  .00000740  00000-0  50819-2 0  2177
2 08163 102.3760 153.8267 0362376 151.7403 210.3844 12.34039731739744
0 THORAD DELTA 1 DEB
1 08163U 74089AD  13295.16579692  .00000315  00000-0  23312-2 0  2187
2 08163 102.3734 154.4815 0362621 150.5065 211.6993 12.34048887739825
